OBJECT_NAME,OBJECT_ID,EPOCH,MEAN_MOTION,ECCENTRICITY,INCLINATION,RA_OF_ASC_NODE,ARG_OF_PERICENTER,MEAN_ANOMALY,EPHEMERIS_TYPE,CLASSIFICATION_TYPE,NORAD_CAT_ID,ELEMENT_SET_NO,REV_AT_EPOCH,BSTAR,MEAN_MOTION_DOT,MEAN_MOTION_DDOT
STARLINK-36322,2026-068Q,2026-07-06T14:08:24.614592,15.34395339,.0001015,53.1573,294.5301,108.2776,251.8337,0,U,68522,999,1518,.9478E-3,.31778E-3,0
STARLINK-37208,2026-068R,2026-07-06T13:35:04.744896,15.34406565,.0000935,53.1597,294.3861,70.5166,289.5937,0,U,68523,999,1518,.81817E-3,.27374E-3,0
STARLINK-36302,2026-068S,2026-07-06T14:17:30.005088,15.34401185,.0001055,53.1571,294.5813,70.8220,289.2897,0,U,68524,999,1518,.11814E-2,.39752E-3,0
STARLINK-36311,2026-068T,2026-07-06T12:40:40.309248,15.34402488,.000117,53.1568,294.8686,124.5104,235.6009,0,U,68525,999,1517,.13253E-2,.44672E-3,0
STARLINK-37178,2026-068U,2026-07-06T14:40:35.491296,15.49324695,.0001121,53.1589,291.1145,78.2277,281.8858,0,U,68526,999,1522,.87364E-3,.48469E-3,0
STARLINK-37248,2026-068V,2026-07-06T14:10:36.010848,15.34402203,.0001063,53.1579,292.3554,74.1054,286.0066,0,U,68527,999,1521,.12812E-2,.43165E-3,0
STARLINK-37241,2026-068W,2026-07-06T13:57:06.041088,15.34405592,.0001119,53.1589,296.6141,55.0498,305.0610,0,U,68528,999,1515,.14038E-2,.47363E-3,0
STARLINK-37244,2026-068X,2026-07-06T14:32:39.040224,15.34396571,.0001161,53.1573,294.6466,81.9498,278.1636,0,U,68529,999,1518,.79153E-3,.26458E-3,0
STARLINK-36285,2026-068Y,2026-07-06T07:51:00.396288,15.34371337,.00010655,53.1583,297.8716,49.4412,310.6683,0,U,68530,999,1511,.12142752E-2,.40836E-3,0
STARLINK-36294,2026-068Z,2026-07-06T18:56:39.870240,15.34412507,.0000987,53.1582,295.7807,68.8317,291.2791,0,U,68531,999,1518,.10942E-2,.3679E-3,0
STARLINK-36249,2026-068AA,2026-07-06T14:29:37.422240,15.34419635,.0002365,53.1582,294.6326,48.7161,311.4045,0,U,68532,999,1518,.16324E-2,.55222E-3,0
STARLINK-36252,2026-068AB,2026-07-06T14:20:31.647264,15.34406608,.0000951,53.1563,294.5830,88.5577,271.5534,0,U,68533,999,1518,.13558E-2,.45721E-3,0
STARLINK-36299,2026-068AC,2026-07-06T12:49:45.864768,15.34392880,.0001108,53.1572,294.9039,78.5873,281.5254,0,U,68534,999,1517,.10646E-2,.35758E-3,0
STARLINK-37234,2026-068AD,2026-07-06T14:41:51.097344,15.49328705,.0001119,53.1587,291.1143,75.8022,284.3112,0,U,68535,999,1523,.79042E-3,.43789E-3,0
STARLINK-37173,2026-068AE,2026-07-06T14:36:44.997696,15.49327862,.0001083,53.1581,291.0945,94.8037,265.3096,0,U,68536,999,1523,.75183E-3,.41616E-3,0
STARLINK-37326,2026-070A,2026-07-06T17:57:51.575040,15.34409980,.0001333,53.1583,168.1195,87.6956,272.4200,0,U,68542,999,1480,.77744E-3,.2599E-3,0
STARLINK-36308,2026-070B,2026-07-06T08:32:02.370336,15.34350218,.00012722,53.1588,169.9368,71.5467,288.5674,0,U,68543,999,1474,.85002363E-3,.28407E-3,0
STARLINK-37263,2026-070C,2026-07-06T05:18:22.838688,15.34373798,.00011011,53.1581,170.5210,114.5900,245.5218,0,U,68544,999,1472,.90615789E-3,.30338E-3,0
STARLINK-37289,2026-070D,2026-07-06T08:28:58.457568,15.34401177,.00014996,53.1586,169.9265,101.9874,258.1296,0,U,68545,999,1474,.95890402E-3,.32162E-3,0
STARLINK-37290,2026-070E,2026-07-06T16:11:56.081760,15.34410738,.0002788,53.1578,168.3605,117.9414,242.1871,0,U,68546,999,1479,.55506E-3,.1843E-3,0
STARLINK-37245,2026-070F,2026-07-06T05:06:14.982624,15.34376316,.0003672,53.1588,170.4655,170.5095,189.5978,0,U,68547,999,1472,.66925214E-3,.22288E-3,0
STARLINK-37145,2026-070G,2026-07-06T08:19:55.011072,15.34247636,.00009115,53.1585,169.8844,83.4983,276.6123,0,U,68548,999,1474,-.88273706E-2,-.286178E-2,0
STARLINK-36204,2026-070H,2026-07-06T11:18:26.526240,15.34409913,.0002114,53.1589,169.2389,56.1757,303.9446,0,U,68549,999,1476,.1289E-2,.43443E-3,0
STARLINK-36304,2026-070J,2026-07-06T08:04:46.195392,15.34347522,.00014404,53.1585,169.8177,98.9267,261.1899,0,U,68550,999,1474,.59114125E-3,.19616E-3,0
STARLINK-37288,2026-070K,2026-07-06T11:09:20.214720,15.34349259,.0001327,53.1577,169.1943,106.0131,254.1018,0,U,68551,999,1476,.60783E-3,.20183E-3,0
STARLINK-37295,2026-070L,2026-07-06T08:07:48.119232,15.34345757,.00014715,53.1592,169.8314,91.8852,268.2320,0,U,68552,999,1474,.86049559E-3,.28759E-3,0
STARLINK-37254,2026-070M,2026-07-06T07:52:38.964000,15.34347883,.00013082,53.1574,169.7616,106.2914,253.8232,0,U,68553,999,1474,.62271244E-3,.20686E-3,0
STARLINK-37255,2026-070N,2026-07-06T10:57:13.104288,15.34368820,.0001474,53.1567,169.1407,107.1990,252.9174,0,U,68554,999,1476,.47719E-3,.15764E-3,0
STARLINK-37146,2026-070P,2026-07-06T07:55:41.011392,15.34346065,.0001317,53.1578,169.7702,74.7508,285.3640,0,U,68555,999,1474,.6414325E-3,.2132E-3,0
STARLINK-37144,2026-070Q,2026-07-06T06:09:45.614016,15.34355119,.00012554,53.1573,170.0165,96.9815,263.1330,0,U,68556,999,1473,.6312622E-3,.20981E-3,0
