STARLINK-36322          
1 68522U 26068Q   26187.58917378  .00031778  00000+0  94780-3 0  9993
2 68522  53.1573 294.5301 0001015 108.2776 251.8337 15.34395339 15180
STARLINK-37208          
1 68523U 26068R   26187.56602714  .00027374  00000+0  81817-3 0  9991
2 68523  53.1597 294.3861 0000935  70.5166 289.5937 15.34406565 15188
STARLINK-36302          
1 68524U 26068S   26187.59548617  .00039752  00000+0  11814-2 0  9998
2 68524  53.1571 294.5813 0001055  70.8220 289.2897 15.34401185 15183
STARLINK-36311          
1 68525U 26068T   26187.52824432  .00044672  00000+0  13253-2 0  9990
2 68525  53.1568 294.8686 0001170 124.5104 235.6009 15.34402488 15173
STARLINK-37178          
1 68526U 26068U   26187.61152189  .00048469  00000+0  87364-3 0  9997
2 68526  53.1589 291.1145 0001121  78.2277 281.8858 15.49324695 15229
STARLINK-37248          
1 68527U 26068V   26187.59069457  .00043165  00000+0  12812-2 0  9993
2 68527  53.1579 292.3554 0001063  74.1054 286.0066 15.34402203 15212
STARLINK-37241          
1 68528U 26068W   26187.58131992  .00047363  00000+0  14038-2 0  9993
2 68528  53.1589 296.6141 0001119  55.0498 305.0610 15.34405592 15159
STARLINK-37244          
1 68529U 26068X   26187.60600741  .00026458  00000+0  79153-3 0  9992
2 68529  53.1573 294.6466 0001161  81.9498 278.1636 15.34396571 15183
STARLINK-36285          
1 68530U 26068Y   26187.32708792  .00040836  00000+0  12143-2 0  9999
2 68530  53.1583 297.8716 0001065  49.4412 310.6683 15.34371337 15117
STARLINK-36294          
1 68531U 26068Z   26187.78935035  .00036790  00000+0  10942-2 0  9991
2 68531  53.1582 295.7807 0000987  68.8317 291.2791 15.34412507 15182
STARLINK-36249          
1 68532U 26068AA  26187.60390535  .00055222  00000+0  16324-2 0  9994
2 68532  53.1582 294.6326 0002365  48.7161 311.4045 15.34419635 15189
STARLINK-36252          
1 68533U 26068AB  26187.59758851  .00045721  00000+0  13558-2 0  9991
2 68533  53.1563 294.5830 0000951  88.5577 271.5534 15.34406608 15185
STARLINK-36299          
1 68534U 26068AC  26187.53455862  .00035758  00000+0  10646-2 0  9996
2 68534  53.1572 294.9039 0001108  78.5873 281.5254 15.34392880 15179
STARLINK-37234          
1 68535U 26068AD  26187.61239696  .00043789  00000+0  79042-3 0  9990
2 68535  53.1587 291.1143 0001119  75.8022 284.3112 15.49328705 15231
STARLINK-37173          
1 68536U 26068AE  26187.60885414  .00041616  00000+0  75183-3 0  9994
2 68536  53.1581 291.0945 0001083  94.8037 265.3096 15.49327862 15235
STARLINK-37326          
1 68542U 26070A   26187.74851360  .00025990  00000+0  77744-3 0  9994
2 68542  53.1583 168.1195 0001333  87.6956 272.4200 15.34409980 14807
STARLINK-36308          
1 68543U 26070B   26187.35558299  .00028407  00000+0  85002-3 0  9999
2 68543  53.1588 169.9368 0001272  71.5467 288.5674 15.34350218 14740
STARLINK-37263          
1 68544U 26070C   26187.22109767  .00030338  00000+0  90616-3 0  9991
2 68544  53.1581 170.5210 0001101 114.5900 245.5218 15.34373798 14722
STARLINK-37289          
1 68545U 26070D   26187.35345437  .00032162  00000+0  95890-3 0  9998
2 68545  53.1586 169.9265 0001499 101.9874 258.1296 15.34401177 14741
STARLINK-37290          
1 68546U 26070E   26187.67495465  .00018430  00000+0  55506-3 0  9993
2 68546  53.1578 168.3605 0002788 117.9414 242.1871 15.34410738 14793
STARLINK-37245          
1 68547U 26070F   26187.21267341  .00022288  00000+0  66925-3 0  9997
2 68547  53.1588 170.4655 0003672 170.5095 189.5978 15.34376316 14725
STARLINK-37145          
1 68548U 26070G   26187.34716448 -.00286178  00000+0 -88274-2 0  9991
2 68548  53.1585 169.8844 0000911  83.4983 276.6123 15.34247636 14740
STARLINK-36204          
1 68549U 26070H   26187.47114035  .00043443  00000+0  12890-2 0  9995
2 68549  53.1589 169.2389 0002114  56.1757 303.9446 15.34409913 14768
STARLINK-36304          
1 68550U 26070J   26187.33664578  .00019616  00000+0  59114-3 0  9990
2 68550  53.1585 169.8177 0001440  98.9267 261.1899 15.34347522 14740
STARLINK-37288          
1 68551U 26070K   26187.46481730  .00020183  00000+0  60783-3 0  9997
2 68551  53.1577 169.1943 0001327 106.0131 254.1018 15.34349259 14767
STARLINK-37295          
1 68552U 26070L   26187.33875138  .00028759  00000+0  86050-3 0  9995
2 68552  53.1592 169.8314 0001471  91.8852 268.2320 15.34345757 14744
STARLINK-37254          
1 68553U 26070M   26187.32822875  .00020686  00000+0  62271-3 0  9995
2 68553  53.1574 169.7616 0001308 106.2914 253.8232 15.34347883 14742
STARLINK-37255          
1 68554U 26070N   26187.45640167  .00015764  00000+0  47719-3 0  9993
2 68554  53.1567 169.1407 0001474 107.1990 252.9174 15.34368820 14766
STARLINK-37146          
1 68555U 26070P   26187.33033578  .00021320  00000+0  64143-3 0  9998
2 68555  53.1578 169.7702 0001317  74.7508 285.3640 15.34346065 14746
STARLINK-37144          
1 68556U 26070Q   26187.25677794  .00020981  00000+0  63126-3 0  9996
2 68556  53.1573 170.0165 0001255  96.9815 263.1330 15.34355119 14737
